[{"OBJECT_NAME":"STARLINK-6140","OBJECT_ID":"2023-090L","EPOCH":"2026-03-09T22:54:44.119584","MEAN_MOTION":15.02533618,"ECCENTRICITY":0.00012835,"INCLINATION":43.0036,"RA_OF_ASC_NODE":273.1778,"ARG_OF_PERICENTER":261.6443,"MEAN_ANOMALY":98.4254,"EPHEMERIS_TYPE":0,"CLASSIFICATION_TYPE":"U","NORAD_CAT_ID":57111,"ELEMENT_SET_NO":999,"REV_AT_EPOCH":15045,"BSTAR":4.2759088e-5,"MEAN_MOTION_DOT":3.74e-6,"MEAN_MOTION_DDOT":0},{"OBJECT_NAME":"CZ-6A R\/B","OBJECT_ID":"2022-031C","EPOCH":"2026-03-09T19:50:55.360896","MEAN_MOTION":15.07476837,"ECCENTRICITY":0.00174842,"INCLINATION":97.8104,"RA_OF_ASC_NODE":273.2347,"ARG_OF_PERICENTER":181.6412,"MEAN_ANOMALY":178.4761,"EPHEMERIS_TYPE":0,"CLASSIFICATION_TYPE":"U","NORAD_CAT_ID":52152,"ELEMENT_SET_NO":999,"REV_AT_EPOCH":21633,"BSTAR":0.00020233161,"MEAN_MOTION_DOT":3.012e-5,"MEAN_MOTION_DDOT":0}]
